[{"OBJECT_NAME":"STARLINK-32470","OBJECT_ID":"2024-222B","EPOCH":"2026-03-08T14:16:58.090656","MEAN_MOTION":15.27617045,"ECCENTRICITY":0.00010814,"INCLINATION":43.0014,"RA_OF_ASC_NODE":142.1928,"ARG_OF_PERICENTER":239.1347,"MEAN_ANOMALY":120.9398,"EPHEMERIS_TYPE":0,"CLASSIFICATION_TYPE":"U","NORAD_CAT_ID":62115,"ELEMENT_SET_NO":999,"REV_AT_EPOCH":7273,"BSTAR":0.0015505794,"MEAN_MOTION_DOT":0.00042702,"MEAN_MOTION_DDOT":0},{"OBJECT_NAME":"FENGYUN 1C DEB","OBJECT_ID":"1999-025AJJ","EPOCH":"2026-03-09T18:40:58.380672","MEAN_MOTION":15.18672988,"ECCENTRICITY":0.00638575,"INCLINATION":98.7226,"RA_OF_ASC_NODE":259.4919,"ARG_OF_PERICENTER":168.3626,"MEAN_ANOMALY":191.9098,"EPHEMERIS_TYPE":0,"CLASSIFICATION_TYPE":"U","NORAD_CAT_ID":30520,"ELEMENT_SET_NO":999,"REV_AT_EPOCH":2360,"BSTAR":0.0014000942,"MEAN_MOTION_DOT":0.0003064,"MEAN_MOTION_DDOT":0}]
